      2.10          N: GNSS NAV DATA                        RINEX VERSION / TYPE
fic2rin                                 11/10/2022 00:17:44 PGM / RUN BY / DATE
                                                            END OF HEADER
3  22 11  9  1 59 44.0 -.371563713998D-03 -.261479726760D-11  .000000000000D+00
     .900000000000D+01  .121875000000D+01  .399909514979D-08 -.214407060359D+01
     .173225998878D-06  .445272505749D-02  .105034559965D-04  .515377901077D+04
     .266384000000D+06  .633299350739D-07  .647304225082D+00 -.204890966415D-07
     .976167483694D+00  .186375000000D+03  .105224586985D+01 -.756352933707D-08
     .591096050095D-09  .100000000000D+01  .223500000000D+04  .000000000000D+00
     .240000000000D+01  .000000000000D+00  .186264514923D-08  .900000000000D+01
     .259200000000D+06  .400000000000D+01
2  22 11  9  1 59 44.0 -.638694036752D-03  .181898940355D-11  .000000000000D+00
     .100000000000D+02 -.120281250000D+03  .419267464173D-08 -.192841094494D+01
    -.607408583164D-05  .201211679960D-01  .854954123497D-05  .515489499474D+04
     .266384000000D+06  .137835741043D-06 -.479087908209D+00  .469386577606D-06
     .966989406304D+00  .213875000000D+03 -.138667756082D+01 -.771639284731D-08
    -.343228582562D-09  .100000000000D+01  .223500000000D+04  .000000000000D+00
     .240000000000D+01  .000000000000D+00 -.176951289177D-07  .100000000000D+02
     .259200000000D+06  .400000000000D+01
15 22 11  9 10  0  0.0 -.138985924423D-04  .318323145621D-11  .000000000000D+00
     .530000000000D+02  .753125000000D+01  .560059042993D-08 -.184399187471D+01
     .530853867531D-06  .147167752730D-01  .412203371525D-05  .515362619209D+04
     .295200000000D+06  .279396772385D-06  .156040257180D+01  .111758708954D-07
     .930689107143D+00  .280281250000D+03  .115696208139D+01 -.835999108433D-08
     .131076888450D-09  .100000000000D+01  .223500000000D+04  .000000000000D+00
     .240000000000D+01  .000000000000D+00 -.107102096081D-07  .530000000000D+02
     .288000000000D+06  .400000000000D+01
31 22 11  9 10  0  0.0 -.199605710804D-03 -.125055521494D-11  .000000000000D+00
     .900000000000D+02  .125000000000D+00  .447447209401D-08  .200277549331D+01
     .260770320892D-07  .107004164020D-01  .111423432827D-04  .515361497879D+04
     .295200000000D+06 -.197440385818D-06  .276457619707D+01  .000000000000D+00
     .955018232091D+00  .167312500000D+03  .460575560592D+00 -.786925635754D-08
    -.708600944645D-09  .100000000000D+01  .223500000000D+04  .000000000000D+00
     .340000000000D+01  .000000000000D+00 -.135041773319D-07  .900000000000D+02
     .288000000000D+06  .400000000000D+01
32 22 11  9 10  0  0.0 -.290389172733D-03 -.125055521494D-10  .000000000000D+00
     .750000000000D+02 -.115625000000D+01  .514950021164D-08 -.138642535521D+00
    -.521540641785D-07  .619800947607D-02  .471808016300D-05  .515365635872D+04
     .295200000000D+06  .745058059692D-08  .168591292621D+01  .689178705215D-07
     .958316100021D+00  .288125000000D+03 -.229704177363D+01 -.837499170916D-08
    -.910752222200D-10  .100000000000D+01  .223500000000D+04  .000000000000D+00
     .240000000000D+01  .000000000000D+00  .465661287308D-09  .750000000000D+02
     .288000000000D+06  .400000000000D+01
24 22 11  9 10  0  0.0  .663753598928D-04 -.156887836056D-10  .000000000000D+00
     .490000000000D+02 -.803125000000D+01  .489234664302D-08 -.280797088381D+01
    -.465661287308D-06  .133832169231D-01  .101216137409D-04  .515367231560D+04
     .295200000000D+06  .122934579849D-06  .265820524963D+01 -.199303030968D-06
     .934318640545D+00  .167656250000D+03  .857808746217D+00 -.792461580634D-08
    -.592881838765D-09  .100000000000D+01  .223500000000D+04  .000000000000D+00
     .240000000000D+01  .000000000000D+00  .279396772385D-08  .490000000000D+02
     .288000000000D+06  .400000000000D+01
27 22 11  9 10  0  0.0  .181869603693D-03 -.818545231596D-11  .000000000000D+00
     .330000000000D+02  .406250000000D+00  .465197948790D-08 -.854104639104D+00
     .165775418282D-06  .107396688545D-01  .447034835815D-06  .515365819168D+04
     .295200000000D+06  .201165676117D-06 -.144940691899D+01  .180676579475D-06
     .969935009412D+00  .373656250000D+03  .684949280967D+00 -.851178312136D-08
     .271439877989D-10  .100000000000D+01  .223500000000D+04  .000000000000D+00
     .240000000000D+01  .000000000000D+00  .139698386192D-08  .330000000000D+02
     .288000000000D+06  .400000000000D+01
26 22 11  9 10  0  0.0  .235253479332D-03  .113686837722D-11  .000000000000D+00
     .640000000000D+02  .135062500000D+03  .474591197200D-08  .918444627648D+00
     .717490911484D-05  .740965001751D-02  .853836536407D-05  .515359821320D+04
     .295200000000D+06 -.540167093277D-07 -.255612334247D+01  .121071934700D-06
     .936116072398D+00  .199375000000D+03  .393019105269D+00 -.825248660633D-08
     .835749098019D-10  .100000000000D+01  .223500000000D+04  .000000000000D+00
     .240000000000D+01  .000000000000D+00  .698491930962D-08  .640000000000D+02
     .288000000000D+06  .400000000000D+01
20 22 11  9 10  0  0.0  .471573323011D-03 -.306954461848D-11  .000000000000D+00
     .510000000000D+02 -.176562500000D+02  .470698177897D-08 -.205539195626D+01
    -.884756445885D-06  .475317169912D-02  .113807618618D-04  .515368738174D+04
     .295200000000D+06 -.204890966415D-07  .484304440012D+00 -.102445483208D-06
     .945749158271D+00  .149531250000D+03 -.304422326638D+01 -.796640326124D-08
     .553594488004D-09  .100000000000D+01  .223500000000D+04  .000000000000D+00
     .340000000000D+01  .000000000000D+00 -.838190317154D-08  .510000000000D+02
     .288000000000D+06  .400000000000D+01
17 22 11  9 10  0  0.0  .676346477121D-03  .329691829393D-11  .000000000000D+00
     .340000000000D+02 -.199687500000D+02  .456697594717D-08 -.856477818459D+00
    -.908970832825D-06  .138751983177D-01  .120140612125D-05  .515364995956D+04
     .295200000000D+06 -.182539224625D-06 -.138506317221D+01  .596046447754D-07
     .976526646174D+00  .370500000000D+03 -.146347205123D+01 -.854178437103D-08
     .735744932444D-10  .100000000000D+01  .223500000000D+04  .000000000000D+00
     .240000000000D+01  .000000000000D+00 -.111758708954D-07  .340000000000D+02
     .288000000000D+06  .400000000000D+01
21 22 11  9 10  0  0.0  .156429130584D-03 -.795807864051D-12  .000000000000D+00
     .750000000000D+02 -.120531250000D+03  .445518557636D-08 -.874654179143D+00
    -.658258795738D-05  .244502623100D-01  .791810452938D-05  .515368667984D+04
     .295200000000D+06 -.322237610817D-06 -.482761064365D+00 -.197440385818D-06
     .961294700709D+00  .231531250000D+03 -.872566239555D+00 -.836999150089D-08
     .111433213069D-09  .100000000000D+01  .223500000000D+04  .000000000000D+00
     .240000000000D+01  .000000000000D+00 -.102445483208D-07  .750000000000D+02
     .288000000000D+06  .400000000000D+01
13 22 11  9 10  0  0.0  .421411357820D-03  .682121026330D-11  .000000000000D+00
     .450000000000D+02 -.127187500000D+02  .476448417418D-08 -.135416776287D+01
    -.638887286186D-06  .665054714773D-02  .506080687046D-05  .515366228485D+04
     .295200000000D+06  .150874257088D-06  .183076916677D+01  .745058059692D-07
     .968694576303D+00  .286125000000D+03  .950390463372D+00 -.804497796277D-08
    -.263939565571D-09  .100000000000D+01  .223500000000D+04  .000000000000D+00
     .240000000000D+01  .000000000000D+00 -.116415321827D-07  .450000000000D+02
     .288000000000D+06  .400000000000D+01
25 22 11  9 10  0  0.0  .390857923776D-03  .375166564481D-11  .000000000000D+00
     .430000000000D+02  .146875000000D+03  .438661129140D-08  .167752401559D+01
     .745244324207D-05  .107449640054D-01  .857003033161D-05  .515360107231D+04
     .295200000000D+06 -.204890966415D-06 -.250417033188D+01 -.134110450745D-06
     .955276941839D+00  .210250000000D+03  .100542737110D+01 -.811033782812D-08
     .216794744657D-09  .100000000000D+01  .223500000000D+04  .000000000000D+00
     .240000000000D+01  .000000000000D+00  .558793544769D-08  .430000000000D+02
     .288000000000D+06  .400000000000D+01
14 22 11  9 10  0  0.0 -.853254459798D-04  .488853402203D-11  .000000000000D+00
     .230000000000D+03  .129187500000D+03  .451697386438D-08  .179247468205D+01
     .671297311783D-05  .239276327193D-02  .722892582417D-05  .515366459465D+04
     .295200000000D+06 -.409781932831D-07 -.245973563181D+01  .316649675369D-07
     .951039113934D+00  .234031250000D+03 -.304238989063D+01 -.809855162290D-08
     .187864968187D-09  .100000000000D+01  .223500000000D+04  .000000000000D+00
     .240000000000D+01  .000000000000D+00 -.791624188423D-08  .742000000000D+03
     .288000000000D+06  .400000000000D+01
30 22 11  9 10  0  0.0 -.536847393960D-03  .341060513165D-12  .000000000000D+00
     .960000000000D+02  .121875000000D+01  .489413243169D-08  .243654309326D+01
    -.558793544769D-07  .594759918749D-02  .102985650301D-04  .515368904305D+04
     .295200000000D+06 -.912696123123D-07  .275454783804D+01 -.223517417908D-07
     .935992834716D+00  .168906250000D+03 -.266396551443D+01 -.802069123684D-08
    -.590024576892D-09  .100000000000D+01  .223500000000D+04  .000000000000D+00
     .340000000000D+01  .000000000000D+00  .372529029846D-08  .960000000000D+02
     .288000000000D+06  .400000000000D+01
23 22 11  9 10  0  0.0 -.109244138002D-05  .113686837722D-12  .000000000000D+00
     .112000000000D+03 -.129375000000D+02  .421838999859D-08  .238068228909D+01
    -.577419996262D-06  .284556660336D-02  .106785446405D-04  .515363645172D+04
     .295200000000D+06 -.540167093277D-07  .618192187489D+00  .141561031342D-06
     .971082121514D+00  .178875000000D+03  .306063270291D+01 -.772710757933D-08
     .604668043994D-09  .100000000000D+01  .223500000000D+04  .000000000000D+00
     .240000000000D+01  .000000000000D+00 -.838190317154D-08  .368000000000D+03
     .288000000000D+06  .400000000000D+01
